[{"OBJECT_NAME":"KUIPER-00247","OBJECT_ID":"2025-301V","EPOCH":"2026-03-04T11:19:04.791072","MEAN_MOTION":15.36618717,"ECCENTRICITY":0.0014067,"INCLINATION":51.8622,"RA_OF_ASC_NODE":91.1831,"ARG_OF_PERICENTER":39.5463,"MEAN_ANOMALY":320.6547,"EPHEMERIS_TYPE":0,"CLASSIFICATION_TYPE":"U","NORAD_CAT_ID":67152,"ELEMENT_SET_NO":999,"REV_AT_EPOCH":1292,"BSTAR":0.00076172,"MEAN_MOTION_DOT":0.00027451,"MEAN_MOTION_DDOT":0},{"OBJECT_NAME":"KUIPER-00248","OBJECT_ID":"2025-301W","EPOCH":"2026-03-04T08:59:17.496384","MEAN_MOTION":15.37203155,"ECCENTRICITY":0.0011213,"INCLINATION":51.8664,"RA_OF_ASC_NODE":91.3286,"ARG_OF_PERICENTER":25.4287,"MEAN_ANOMALY":334.7249,"EPHEMERIS_TYPE":0,"CLASSIFICATION_TYPE":"U","NORAD_CAT_ID":67153,"ELEMENT_SET_NO":999,"REV_AT_EPOCH":1308,"BSTAR":0.0014283,"MEAN_MOTION_DOT":0.0005293,"MEAN_MOTION_DDOT":0},{"OBJECT_NAME":"KUIPER-00249","OBJECT_ID":"2025-301X","EPOCH":"2026-03-04T11:28:13.387008","MEAN_MOTION":15.37877532,"ECCENTRICITY":0.0010732,"INCLINATION":51.8649,"RA_OF_ASC_NODE":90.5094,"ARG_OF_PERICENTER":26.3705,"MEAN_ANOMALY":333.7826,"EPHEMERIS_TYPE":0,"CLASSIFICATION_TYPE":"U","NORAD_CAT_ID":67154,"ELEMENT_SET_NO":999,"REV_AT_EPOCH":1293,"BSTAR":0.001486,"MEAN_MOTION_DOT":0.00056323,"MEAN_MOTION_DDOT":0},{"OBJECT_NAME":"KUIPER-00250","OBJECT_ID":"2025-301Y","EPOCH":"2026-03-04T10:00:01.999584","MEAN_MOTION":15.00106965,"ECCENTRICITY":0.0009246,"INCLINATION":51.9194,"RA_OF_ASC_NODE":93.8776,"ARG_OF_PERICENTER":33.4551,"MEAN_ANOMALY":319.6134,"EPHEMERIS_TYPE":0,"CLASSIFICATION_TYPE":"U","NORAD_CAT_ID":67155,"ELEMENT_SET_NO":999,"REV_AT_EPOCH":572,"BSTAR":-0.075943,"MEAN_MOTION_DOT":-0.00888281,"MEAN_MOTION_DDOT":0},{"OBJECT_NAME":"KUIPER-00251","OBJECT_ID":"2025-301Z","EPOCH":"2026-03-04T07:11:10.694112","MEAN_MOTION":15.37379811,"ECCENTRICITY":0.0011188,"INCLINATION":51.8649,"RA_OF_ASC_NODE":91.5656,"ARG_OF_PERICENTER":28.0542,"MEAN_ANOMALY":332.1045,"EPHEMERIS_TYPE":0,"CLASSIFICATION_TYPE":"U","NORAD_CAT_ID":67156,"ELEMENT_SET_NO":999,"REV_AT_EPOCH":1309,"BSTAR":0.000728,"MEAN_MOTION_DOT":0.00026846,"MEAN_MOTION_DDOT":0},{"OBJECT_NAME":"KUIPER-00252","OBJECT_ID":"2025-301AA","EPOCH":"2026-03-04T09:10:02.076672","MEAN_MOTION":15.37128851,"ECCENTRICITY":0.0012845,"INCLINATION":51.8648,"RA_OF_ASC_NODE":91.3597,"ARG_OF_PERICENTER":33.3013,"MEAN_ANOMALY":326.8779,"EPHEMERIS_TYPE":0,"CLASSIFICATION_TYPE":"U","NORAD_CAT_ID":67157,"ELEMENT_SET_NO":999,"REV_AT_EPOCH":1291,"BSTAR":0.001907,"MEAN_MOTION_DOT":0.0007084,"MEAN_MOTION_DDOT":0},{"OBJECT_NAME":"KUIPER-00261","OBJECT_ID":"2025-301AB","EPOCH":"2026-03-04T10:00:01.999584","MEAN_MOTION":14.97664102,"ECCENTRICITY":0.0011674,"INCLINATION":51.8945,"RA_OF_ASC_NODE":94.1463,"ARG_OF_PERICENTER":40.5326,"MEAN_ANOMALY":61.1062,"EPHEMERIS_TYPE":0,"CLASSIFICATION_TYPE":"U","NORAD_CAT_ID":67158,"ELEMENT_SET_NO":999,"REV_AT_EPOCH":513,"BSTAR":-0.18653,"MEAN_MOTION_DOT":-0.02018761,"MEAN_MOTION_DDOT":0},{"OBJECT_NAME":"KUIPER-00265","OBJECT_ID":"2025-301AC","EPOCH":"2026-03-04T08:04:14.515968","MEAN_MOTION":14.79931484,"ECCENTRICITY":0.000117,"INCLINATION":51.9025,"RA_OF_ASC_NODE":109.2853,"ARG_OF_PERICENTER":24.0044,"MEAN_ANOMALY":336.0972,"EPHEMERIS_TYPE":0,"CLASSIFICATION_TYPE":"U","NORAD_CAT_ID":67159,"ELEMENT_SET_NO":999,"REV_AT_EPOCH":1269,"BSTAR":-0.00027742,"MEAN_MOTION_DOT":-2.335e-5,"MEAN_MOTION_DDOT":0},{"OBJECT_NAME":"KUIPER-00159","OBJECT_ID":"2026-030A","EPOCH":"2026-03-04T11:47:10.141440","MEAN_MOTION":15.35495952,"ECCENTRICITY":0.0004468,"INCLINATION":51.8842,"RA_OF_ASC_NODE":244.2318,"ARG_OF_PERICENTER":31.3223,"MEAN_ANOMALY":328.8028,"EPHEMERIS_TYPE":0,"CLASSIFICATION_TYPE":"U","NORAD_CAT_ID":67764,"ELEMENT_SET_NO":999,"REV_AT_EPOCH":429,"BSTAR":0.00098235,"MEAN_MOTION_DOT":0.00034185,"MEAN_MOTION_DDOT":0},{"OBJECT_NAME":"KUIPER-00160","OBJECT_ID":"2026-030B","EPOCH":"2026-03-04T11:48:45.554688","MEAN_MOTION":15.35345775,"ECCENTRICITY":0.0004746,"INCLINATION":51.8809,"RA_OF_ASC_NODE":244.2319,"ARG_OF_PERICENTER":42.1444,"MEAN_ANOMALY":317.9906,"EPHEMERIS_TYPE":0,"CLASSIFICATION_TYPE":"U","NORAD_CAT_ID":67765,"ELEMENT_SET_NO":999,"REV_AT_EPOCH":429,"BSTAR":0.0012062,"MEAN_MOTION_DOT":0.00041904,"MEAN_MOTION_DDOT":0},{"OBJECT_NAME":"KUIPER-00177","OBJECT_ID":"2026-030C","EPOCH":"2026-03-04T11:32:00.165408","MEAN_MOTION":15.36288882,"ECCENTRICITY":0.0001077,"INCLINATION":51.8828,"RA_OF_ASC_NODE":244.1618,"ARG_OF_PERICENTER":8.2848,"MEAN_ANOMALY":351.8156,"EPHEMERIS_TYPE":0,"CLASSIFICATION_TYPE":"U","NORAD_CAT_ID":67766,"ELEMENT_SET_NO":999,"REV_AT_EPOCH":429,"BSTAR":0.001312,"MEAN_MOTION_DOT":0.00047042,"MEAN_MOTION_DDOT":0},{"OBJECT_NAME":"KUIPER-00178","OBJECT_ID":"2026-030D","EPOCH":"2026-03-04T11:51:11.165472","MEAN_MOTION":15.35295266,"ECCENTRICITY":0.0006223,"INCLINATION":51.883,"RA_OF_ASC_NODE":244.2493,"ARG_OF_PERICENTER":31.1459,"MEAN_ANOMALY":328.9895,"EPHEMERIS_TYPE":0,"CLASSIFICATION_TYPE":"U","NORAD_CAT_ID":67767,"ELEMENT_SET_NO":999,"REV_AT_EPOCH":429,"BSTAR":0.001489,"MEAN_MOTION_DOT":0.00051815,"MEAN_MOTION_DDOT":0},{"OBJECT_NAME":"KUIPER-00180","OBJECT_ID":"2026-030E","EPOCH":"2026-03-04T12:32:26.471904","MEAN_MOTION":15.32113555,"ECCENTRICITY":0.0014618,"INCLINATION":51.8795,"RA_OF_ASC_NODE":244.4256,"ARG_OF_PERICENTER":52.7518,"MEAN_ANOMALY":307.4797,"EPHEMERIS_TYPE":0,"CLASSIFICATION_TYPE":"U","NORAD_CAT_ID":67768,"ELEMENT_SET_NO":999,"REV_AT_EPOCH":429,"BSTAR":0.0020773,"MEAN_MOTION_DOT":0.00065771,"MEAN_MOTION_DDOT":0},{"OBJECT_NAME":"KUIPER-00197","OBJECT_ID":"2026-030F","EPOCH":"2026-03-04T11:34:59.076480","MEAN_MOTION":15.36163588,"ECCENTRICITY":0.0001418,"INCLINATION":51.883,"RA_OF_ASC_NODE":244.1766,"ARG_OF_PERICENTER":48.3821,"MEAN_ANOMALY":311.7287,"EPHEMERIS_TYPE":0,"CLASSIFICATION_TYPE":"U","NORAD_CAT_ID":67769,"ELEMENT_SET_NO":999,"REV_AT_EPOCH":429,"BSTAR":0.0015219,"MEAN_MOTION_DOT":0.00054465,"MEAN_MOTION_DDOT":0},{"OBJECT_NAME":"KUIPER-00198","OBJECT_ID":"2026-030G","EPOCH":"2026-03-04T11:41:40.773408","MEAN_MOTION":15.35796409,"ECCENTRICITY":0.0003013,"INCLINATION":51.8808,"RA_OF_ASC_NODE":244.2004,"ARG_OF_PERICENTER":34.1858,"MEAN_ANOMALY":325.9321,"EPHEMERIS_TYPE":0,"CLASSIFICATION_TYPE":"U","NORAD_CAT_ID":67770,"ELEMENT_SET_NO":999,"REV_AT_EPOCH":429,"BSTAR":0.00094961,"MEAN_MOTION_DOT":0.00033346,"MEAN_MOTION_DDOT":0},{"OBJECT_NAME":"KUIPER-00199","OBJECT_ID":"2026-030H","EPOCH":"2026-03-04T12:11:35.697120","MEAN_MOTION":15.34151599,"ECCENTRICITY":0.0010142,"INCLINATION":51.8802,"RA_OF_ASC_NODE":244.3326,"ARG_OF_PERICENTER":46.7813,"MEAN_ANOMALY":313.4018,"EPHEMERIS_TYPE":0,"CLASSIFICATION_TYPE":"U","NORAD_CAT_ID":67771,"ELEMENT_SET_NO":999,"REV_AT_EPOCH":429,"BSTAR":0.0018027,"MEAN_MOTION_DOT":0.00060687,"MEAN_MOTION_DDOT":0},{"OBJECT_NAME":"KUIPER-00200","OBJECT_ID":"2026-030J","EPOCH":"2026-03-04T11:23:33.978048","MEAN_MOTION":15.36800201,"ECCENTRICITY":0.0001376,"INCLINATION":51.8805,"RA_OF_ASC_NODE":244.1209,"ARG_OF_PERICENTER":213.3954,"MEAN_ANOMALY":146.6946,"EPHEMERIS_TYPE":0,"CLASSIFICATION_TYPE":"U","NORAD_CAT_ID":67772,"ELEMENT_SET_NO":999,"REV_AT_EPOCH":429,"BSTAR":0.00099506,"MEAN_MOTION_DOT":0.00036128,"MEAN_MOTION_DDOT":0}]
